<?xml version="1.0" encoding="UTF-8"?>
<ndm xmlns:xsi="http://www.w3.org/2001/XMLSchema-instance" xsi:noNamespaceSchemaLocation="https://sanaregistry.org/r/ndmxml_unqualified/ndmxml-2.0.0-master-2.0.xsd">
<omm id="CCSDS_OMM_VERS" version="2.0">
<header><CREATION_DATE/><ORIGINATOR/></header><body><segment><metadata><OBJECT_NAME>ORBCOMM-X</OBJECT_NAME><OBJECT_ID>1991-050C</OBJECT_ID><CENTER_NAME>EARTH</CENTER_NAME><REF_FRAME>TEME</REF_FRAME><TIME_SYSTEM>UTC</TIME_SYSTEM><MEAN_ELEMENT_THEORY>SGP4</MEAN_ELEMENT_THEORY></metadata><data><meanElements><EPOCH>2025-01-22T03:44:17.570688</EPOCH><MEAN_MOTION>14.43048839</MEAN_MOTION><ECCENTRICITY>.0002503</ECCENTRICITY><INCLINATION>98.3637</INCLINATION><RA_OF_ASC_NODE>91.6223</RA_OF_ASC_NODE><ARG_OF_PERICENTER>266.1541</ARG_OF_PERICENTER><MEAN_ANOMALY>93.9364</MEAN_ANOMALY></meanElements><tleParameters><EPHEMERIS_TYPE>0</EPHEMERIS_TYPE><CLASSIFICATION_TYPE>U</CLASSIFICATION_TYPE><NORAD_CAT_ID>21576</NORAD_CAT_ID><ELEMENT_SET_NO>999</ELEMENT_SET_NO><REV_AT_EPOCH>76105</REV_AT_EPOCH><BSTAR>.27381E-3</BSTAR><MEAN_MOTION_DOT>.874E-5</MEAN_MOTION_DOT><MEAN_MOTION_DDOT>0</MEAN_MOTION_DDOT></tleParameters></data></segment></body></omm>
<omm id="CCSDS_OMM_VERS" version="2.0">
<header><CREATION_DATE/><ORIGINATOR/></header><body><segment><metadata><OBJECT_NAME>ORBCOMM FM01</OBJECT_NAME><OBJECT_ID>1995-017A</OBJECT_ID><CENTER_NAME>EARTH</CENTER_NAME><REF_FRAME>TEME</REF_FRAME><TIME_SYSTEM>UTC</TIME_SYSTEM><MEAN_ELEMENT_THEORY>SGP4</MEAN_ELEMENT_THEORY></metadata><data><meanElements><EPOCH>2025-01-22T11:14:28.012992</EPOCH><MEAN_MOTION>14.86995557</MEAN_MOTION><ECCENTRICITY>.0004927</ECCENTRICITY><INCLINATION>69.9647</INCLINATION><RA_OF_ASC_NODE>76.7485</RA_OF_ASC_NODE><ARG_OF_PERICENTER>240.3931</ARG_OF_PERICENTER><MEAN_ANOMALY>119.6731</MEAN_ANOMALY></meanElements><tleParameters><EPHEMERIS_TYPE>0</EPHEMERIS_TYPE><CLASSIFICATION_TYPE>U</CLASSIFICATION_TYPE><NORAD_CAT_ID>23545</NORAD_CAT_ID><ELEMENT_SET_NO>999</ELEMENT_SET_NO><REV_AT_EPOCH>59082</REV_AT_EPOCH><BSTAR>.17246E-2</BSTAR><MEAN_MOTION_DOT>.15422E-3</MEAN_MOTION_DOT><MEAN_MOTION_DDOT>0</MEAN_MOTION_DDOT></tleParameters></data></segment></body></omm>
<omm id="CCSDS_OMM_VERS" version="2.0">
<header><CREATION_DATE/><ORIGINATOR/></header><body><segment><metadata><OBJECT_NAME>ORBCOMM FM02</OBJECT_NAME><OBJECT_ID>1995-017B</OBJECT_ID><CENTER_NAME>EARTH</CENTER_NAME><REF_FRAME>TEME</REF_FRAME><TIME_SYSTEM>UTC</TIME_SYSTEM><MEAN_ELEMENT_THEORY>SGP4</MEAN_ELEMENT_THEORY></metadata><data><meanElements><EPOCH>2025-01-22T11:11:55.150656</EPOCH><MEAN_MOTION>14.87242343</MEAN_MOTION><ECCENTRICITY>.000569</ECCENTRICITY><INCLINATION>69.9663</INCLINATION><RA_OF_ASC_NODE>96.4400</RA_OF_ASC_NODE><ARG_OF_PERICENTER>226.4798</ARG_OF_PERICENTER><MEAN_ANOMALY>133.5883</MEAN_ANOMALY></meanElements><tleParameters><EPHEMERIS_TYPE>0</EPHEMERIS_TYPE><CLASSIFICATION_TYPE>U</CLASSIFICATION_TYPE><NORAD_CAT_ID>23546</NORAD_CAT_ID><ELEMENT_SET_NO>999</ELEMENT_SET_NO><REV_AT_EPOCH>59046</REV_AT_EPOCH><BSTAR>.19427E-2</BSTAR><MEAN_MOTION_DOT>.17496E-3</MEAN_MOTION_DOT><MEAN_MOTION_DDOT>0</MEAN_MOTION_DDOT></tleParameters></data></segment></body></omm>
<omm id="CCSDS_OMM_VERS" version="2.0">
<header><CREATION_DATE/><ORIGINATOR/></header><body><segment><metadata><OBJECT_NAME>ORBCOMM FM08</OBJECT_NAME><OBJECT_ID>1997-084A</OBJECT_ID><CENTER_NAME>EARTH</CENTER_NAME><REF_FRAME>TEME</REF_FRAME><TIME_SYSTEM>UTC</TIME_SYSTEM><MEAN_ELEMENT_THEORY>SGP4</MEAN_ELEMENT_THEORY></metadata><data><meanElements><EPOCH>2025-01-22T08:18:15.530976</EPOCH><MEAN_MOTION>14.44895958</MEAN_MOTION><ECCENTRICITY>.0006546</ECCENTRICITY><INCLINATION>45.0151</INCLINATION><RA_OF_ASC_NODE>347.5396</RA_OF_ASC_NODE><ARG_OF_PERICENTER>248.1618</ARG_OF_PERICENTER><MEAN_ANOMALY>111.8537</MEAN_ANOMALY></meanElements><tleParameters><EPHEMERIS_TYPE>0</EPHEMERIS_TYPE><CLASSIFICATION_TYPE>U</CLASSIFICATION_TYPE><NORAD_CAT_ID>25112</NORAD_CAT_ID><ELEMENT_SET_NO>999</ELEMENT_SET_NO><REV_AT_EPOCH>42027</REV_AT_EPOCH><BSTAR>.14529E-2</BSTAR><MEAN_MOTION_DOT>.4968E-4</MEAN_MOTION_DOT><MEAN_MOTION_DDOT>0</MEAN_MOTION_DDOT></tleParameters></data></segment></body></omm>
<omm id="CCSDS_OMM_VERS" version="2.0">
<header><CREATION_DATE/><ORIGINATOR/></header><body><segment><metadata><OBJECT_NAME>ORBCOMM FM10</OBJECT_NAME><OBJECT_ID>1997-084B</OBJECT_ID><CENTER_NAME>EARTH</CENTER_NAME><REF_FRAME>TEME</REF_FRAME><TIME_SYSTEM>UTC</TIME_SYSTEM><MEAN_ELEMENT_THEORY>SGP4</MEAN_ELEMENT_THEORY></metadata><data><meanElements><EPOCH>2025-01-22T07:21:14.641344</EPOCH><MEAN_MOTION>14.44711027</MEAN_MOTION><ECCENTRICITY>.0003777</ECCENTRICITY><INCLINATION>45.0163</INCLINATION><RA_OF_ASC_NODE>349.8639</RA_OF_ASC_NODE><ARG_OF_PERICENTER>220.9413</ARG_OF_PERICENTER><MEAN_ANOMALY>139.1155</MEAN_ANOMALY></meanElements><tleParameters><EPHEMERIS_TYPE>0</EPHEMERIS_TYPE><CLASSIFICATION_TYPE>U</CLASSIFICATION_TYPE><NORAD_CAT_ID>25113</NORAD_CAT_ID><ELEMENT_SET_NO>999</ELEMENT_SET_NO><REV_AT_EPOCH>59541</REV_AT_EPOCH><BSTAR>.1321E-2</BSTAR><MEAN_MOTION_DOT>.4485E-4</MEAN_MOTION_DOT><MEAN_MOTION_DDOT>0</MEAN_MOTION_DDOT></tleParameters></data></segment></body></omm>
<omm id="CCSDS_OMM_VERS" version="2.0">
<header><CREATION_DATE/><ORIGINATOR/></header><body><segment><metadata><OBJECT_NAME>ORBCOMM FM11</OBJECT_NAME><OBJECT_ID>1997-084C</OBJECT_ID><CENTER_NAME>EARTH</CENTER_NAME><REF_FRAME>TEME</REF_FRAME><TIME_SYSTEM>UTC</TIME_SYSTEM><MEAN_ELEMENT_THEORY>SGP4</MEAN_ELEMENT_THEORY></metadata><data><meanElements><EPOCH>2025-01-22T08:32:03.675840</EPOCH><MEAN_MOTION>14.44489894</MEAN_MOTION><ECCENTRICITY>.0004624</ECCENTRICITY><INCLINATION>45.0148</INCLINATION><RA_OF_ASC_NODE>350.0050</RA_OF_ASC_NODE><ARG_OF_PERICENTER>218.4604</ARG_OF_PERICENTER><MEAN_ANOMALY>141.5918</MEAN_ANOMALY></meanElements><tleParameters><EPHEMERIS_TYPE>0</EPHEMERIS_TYPE><CLASSIFICATION_TYPE>U</CLASSIFICATION_TYPE><NORAD_CAT_ID>25114</NORAD_CAT_ID><ELEMENT_SET_NO>999</ELEMENT_SET_NO><REV_AT_EPOCH>42038</REV_AT_EPOCH><BSTAR>.12651E-2</BSTAR><MEAN_MOTION_DOT>.4269E-4</MEAN_MOTION_DOT><MEAN_MOTION_DDOT>0</MEAN_MOTION_DDOT></tleParameters></data></segment></body></omm>
<omm id="CCSDS_OMM_VERS" version="2.0">
<header><CREATION_DATE/><ORIGINATOR/></header><body><segment><metadata><OBJECT_NAME>ORBCOMM FM12</OBJECT_NAME><OBJECT_ID>1997-084D</OBJECT_ID><CENTER_NAME>EARTH</CENTER_NAME><REF_FRAME>TEME</REF_FRAME><TIME_SYSTEM>UTC</TIME_SYSTEM><MEAN_ELEMENT_THEORY>SGP4</MEAN_ELEMENT_THEORY></metadata><data><meanElements><EPOCH>2025-01-22T06:01:01.716384</EPOCH><MEAN_MOTION>14.44489916</MEAN_MOTION><ECCENTRICITY>.0003631</ECCENTRICITY><INCLINATION>45.0156</INCLINATION><RA_OF_ASC_NODE>350.2687</RA_OF_ASC_NODE><ARG_OF_PERICENTER>222.0284</ARG_OF_PERICENTER><MEAN_ANOMALY>138.0289</MEAN_ANOMALY></meanElements><tleParameters><EPHEMERIS_TYPE>0</EPHEMERIS_TYPE><CLASSIFICATION_TYPE>U</CLASSIFICATION_TYPE><NORAD_CAT_ID>25115</NORAD_CAT_ID><ELEMENT_SET_NO>999</ELEMENT_SET_NO><REV_AT_EPOCH>42016</REV_AT_EPOCH><BSTAR>.13458E-2</BSTAR><MEAN_MOTION_DOT>.455E-4</MEAN_MOTION_DOT><MEAN_MOTION_DDOT>0</MEAN_MOTION_DDOT></tleParameters></data></segment></body></omm>
<omm id="CCSDS_OMM_VERS" version="2.0">
<header><CREATION_DATE/><ORIGINATOR/></header><body><segment><metadata><OBJECT_NAME>ORBCOMM FM09</OBJECT_NAME><OBJECT_ID>1997-084E</OBJECT_ID><CENTER_NAME>EARTH</CENTER_NAME><REF_FRAME>TEME</REF_FRAME><TIME_SYSTEM>UTC</TIME_SYSTEM><MEAN_ELEMENT_THEORY>SGP4</MEAN_ELEMENT_THEORY></metadata><data><meanElements><EPOCH>2025-01-22T08:10:44.122944</EPOCH><MEAN_MOTION>14.44393283</MEAN_MOTION><ECCENTRICITY>.0004463</ECCENTRICITY><INCLINATION>45.0159</INCLINATION><RA_OF_ASC_NODE>350.6379</RA_OF_ASC_NODE><ARG_OF_PERICENTER>199.5493</ARG_OF_PERICENTER><MEAN_ANOMALY>160.5187</MEAN_ANOMALY></meanElements><tleParameters><EPHEMERIS_TYPE>0</EPHEMERIS_TYPE><CLASSIFICATION_TYPE>U</CLASSIFICATION_TYPE><NORAD_CAT_ID>25116</NORAD_CAT_ID><ELEMENT_SET_NO>999</ELEMENT_SET_NO><REV_AT_EPOCH>42038</REV_AT_EPOCH><BSTAR>.11538E-2</BSTAR><MEAN_MOTION_DOT>.3872E-4</MEAN_MOTION_DOT><MEAN_MOTION_DDOT>0</MEAN_MOTION_DDOT></tleParameters></data></segment></body></omm>

</ndm>
