ORBCOMM-X               
1 21576U 91050C   25022.15575892  .00000874  00000+0  27381-3 0  9991
2 21576  98.3637  91.6223 0002503 266.1541  93.9364 14.43048839761054
ORBCOMM FM01            
1 23545U 95017A   25022.46837978  .00015422  00000+0  17246-2 0  9999
2 23545  69.9647  76.7485 0004927 240.3931 119.6731 14.86995557590824
ORBCOMM FM02            
1 23546U 95017B   25022.46661054  .00017496  00000+0  19427-2 0  9996
2 23546  69.9663  96.4400 0005690 226.4798 133.5883 14.87242343590465
ORBCOMM FM08            
1 25112U 97084A   25022.34601309  .00004968  00000+0  14529-2 0  9995
2 25112  45.0151 347.5396 0006546 248.1618 111.8537 14.44895958420275
ORBCOMM FM10            
1 25113U 97084B   25022.30641946  .00004485  00000+0  13210-2 0  9993
2 25113  45.0163 349.8639 0003777 220.9413 139.1155 14.44711027595410
ORBCOMM FM11            
1 25114U 97084C   25022.35559810  .00004269  00000+0  12651-2 0  9995
2 25114  45.0148 350.0050 0004624 218.4604 141.5918 14.44489894420382
ORBCOMM FM12            
1 25115U 97084D   25022.25071431  .00004550  00000+0  13458-2 0  9992
2 25115  45.0156 350.2687 0003631 222.0284 138.0289 14.44489916420165
ORBCOMM FM09            
1 25116U 97084E   25022.34078846  .00003872  00000+0  11538-2 0  9993
2 25116  45.0159 350.6379 0004463 199.5493 160.5187 14.44393283420387
